IRIDIUM 150             
1 43257U 18030J   25034.37300411  .00000769  00000+0  26767-3 0  9998
2 43257  86.4011 139.0114 0002309  94.2714 265.8745 14.34218298358682
IRIDIUM 143             
1 43258U 18030K   25033.79582769  .00000785  00000+0  27307-3 0  9991
2 43258  86.4017 139.3254 0002613  95.0500 265.0995 14.34217855358516
IRIDIUM 161             
1 43478U 18047C   25034.26428040  .00000875  00000+0  25409-3 0  9998
2 43478  86.4493 296.9616 0002098  83.9619 276.1821 14.43279607353175
IRIDIUM 152             
1 43479U 18047D   25034.25692462  .00000665  00000+0  23038-3 0  9992
2 43479  86.3968 296.8240 0002048  86.3163 273.8267 14.34218028350984
IRIDIUM 147             
1 43480U 18047E   25034.12372843  .00000739  00000+0  25675-3 0  9999
2 43480  86.3971 296.8763 0001858  79.0060 281.1345 14.34218302350954
IRIDIUM 110             
1 43481U 18047F   25034.26960988  .00000668  00000+0  23160-3 0  9996
2 43481  86.3972 296.8941 0001729  92.0153 268.1241 14.34218081350964
IRIDIUM 162             
1 43482U 18047G   25034.11932478  .00000922  00000+0  26801-3 0  9992
2 43482  86.4493 296.9192 0002034  89.6022 270.5412 14.43273109353142
IRIDIUM 160             
1 43569U 18061A   25033.58752835  .00000561  00000+0  19340-3 0  9990
2 43569  86.3934 265.5329 0001837  86.5642 273.5764 14.34218939341763
